ONEWEB-0427             
1 50499U 21132AG  26195.89589492 -.00000015  00000+0 -70147-4 0  9993
2 50499  87.9199 329.9255 0001819  91.7250 268.4091 13.18686297225268
ONEWEB-0429             
1 50500U 21132AH  26195.88239231 -.00000044  00000+0 -14387-3 0  9993
2 50500  87.9189 329.9505 0001923 101.8765 258.2583 13.18687166225234
ONEWEB-0430             
1 50501U 21132AJ  26195.87058807 -.00000002  00000+0 -37151-4 0  9990
2 50501  87.9190 329.9519 0002068 102.2368 257.8996 13.18688156225274
ONEWEB-0432             
1 50502U 21132AK  26195.92948278  .00000060  00000+0  12062-3 0  9992
2 50502  87.9194 329.9262 0002339  97.2889 262.8510 13.18686516225238
ONEWEB-0440             
1 50503U 21132AL  26195.89082755  .00000010  00000+0 -83021-5 0  9999
2 50503  87.9197 329.9455 0001690 107.2000 252.9317 13.18686783225222
ONEWEB-0450             
1 50504U 21132AM  26195.88422441  .00000009  00000+0 -10062-4 0  9991
2 50504  87.9189 329.9488 0001996 103.2960 256.8395 13.18686526225257
ONEWEB-0410             
1 51622U 22012A   26196.00990935  .00000033  00000+0  51802-4 0  9997
2 51622  87.9156   0.3243 0001754  50.3905 309.7381 13.17650379217367
ONEWEB-0411             
1 51623U 22012B   26196.03653500 -.00000553  00000+0 -16193-2 0  9996
2 51623  87.8825  30.7183 0002302  96.4393 263.6996 13.10376497212939
ONEWEB-0415             
1 51624U 22012C   26196.10948957 -.00000618  00000+0 -18072-2 0  9998
2 51624  87.8819  30.7015 0002119  87.4684 272.6686 13.10376535212946
ONEWEB-0416             
1 51625U 22012D   26196.04502613 -.00000224  00000+0 -67845-3 0  9993
2 51625  87.8816  30.7313 0002201  83.8760 276.2618 13.10377592212974
ONEWEB-0422             
1 51626U 22012E   26196.02003127 -.00000080  00000+0 -23795-3 0  9994
2 51626  87.9153   0.3228 0001854 112.7710 247.3617 13.17650372217473
ONEWEB-0423             
1 51627U 22012F   26196.01328772  .00000029  00000+0  42695-4 0  9992
2 51627  87.9145   0.3278 0001773  90.1116 270.0219 13.17648764217360
ONEWEB-0425             
1 51628U 22012G   26196.05522194  .00000743  00000+0  20918-2 0  9996
2 51628  87.8820  30.7129 0001719  80.2672 279.8649 13.10375578212978
ONEWEB-0428             
1 51629U 22012H   26196.11118903 -.00000530  00000+0 -15551-2 0  9996
2 51629  87.8812  30.7085 0001801  88.0836 272.0497 13.10376704212946
ONEWEB-0431             
1 51630U 22012J   26196.08051367  .00000443  00000+0  12342-2 0  9990
2 51630  87.8813  30.7075 0002364  96.6873 263.4524 13.10370378212990
ONEWEB-0434             
1 51631U 22012K   26196.05875723  .00000438  00000+0  12177-2 0  9998
2 51631  87.8823  30.7381 0001573  67.7793 292.3501 13.10376878212978
